{"type": "FeatureCollection", "features": [ {"type": "Feature", "properties": {"norad_id": 34001, "name": "COSMOS 2251 DEB", "group": "cosmos-2251-debris", "lat": -8.188453364562053, "lon": -76.87637237702198, "alt_km": 758.0402014269384, "timestamp": "2025-12-10T14:53:37.481393+00:00", "meta": {"OBJECT_NAME": "COSMOS 2251 DEB", "OBJECT_ID": "1993-036GL", "EPOCH": "2025-12-10T07:09:50.734368", "MEAN_MOTION": 14.37093599, "ECCENTRICITY": 0.00198631, "INCLINATION": 74.0386, "RA_OF_ASC_NODE": 286.0759, "ARG_OF_PERICENTER": 7.6446, "MEAN_ANOMALY": 118.4474, "EPHEMERIS_TYPE": 0, "CLASSIFICATION_TYPE": "U", "NORAD_CAT_ID": 34001, "ELEMENT_SET_NO": 999, "REV_AT_EPOCH": 88111, "BSTAR": 0.00035299121, "MEAN_MOTION_DOT": 1.025e-05, "MEAN_MOTION_DDOT": 0}, "tle": {"line1": "1 34001U 93036GL  25344.29850387  .00001025  00000+0  35299-3 0  9997", "line2": "2 34001  74.0386 286.0759 0019863   7.6446 118.4474 14.37093599881117"}}, "geometry": {"type": "Point", "coordinates": [-76.87637237702198, -8.188453364562053]}}, {"type": "Feature", "properties": {"norad_id": 34003, "name": "COSMOS 2251 DEB", "group": "cosmos-2251-debris", "lat": -71.33330815399901, "lon": -128.9518431435464, "alt_km": 1056.6741033233984, "timestamp": "2025-12-10T14:53:37.481401+00:00", "meta": {"OBJECT_NAME": "COSMOS 2251 DEB", "OBJECT_ID": "1993-036GN", "EPOCH": "2025-12-10T06:36:15.021504", "MEAN_MOTION": 13.84128713, "ECCENTRICITY": 0.02741675, "INCLINATION": 74.0784, "RA_OF_ASC_NODE": 289.2922, "ARG_OF_PERICENTER": 41.8907, "MEAN_ANOMALY": 320.2842, "EPHEMERIS_TYPE": 0, "CLASSIFICATION_TYPE": "U", "NORAD_CAT_ID": 34003, "ELEMENT_SET_NO": 999, "REV_AT_EPOCH": 84391, "BSTAR": 0.0031921826, "MEAN_MOTION_DOT": 4.737e-05, "MEAN_MOTION_DDOT": 0}, "tle": {"line1": "1 34003U 93036GN  25344.27517386  .00004737  00000+0  31922-2 0  9997", "line2": "2 34003  74.0784 289.2922 0274167  41.8907 320.2842 13.84128713843916"}}, "geometry": {"type": "Point", "coordinates": [-128.9518431435464, -71.33330815399901]}}, {"type": "Feature", "properties": {"norad_id": 34004, "name": "COSMOS 2251 DEB", "group": "cosmos-2251-debris", "lat": 31.566940940820327, "lon": 126.954690131578, "alt_km": 750.5154773298127, "timestamp": "2025-12-10T14:53:37.481411+00:00", "meta": {"OBJECT_NAME": "COSMOS 2251 DEB", "OBJECT_ID": "1993-036GP", "EPOCH": "2025-12-09T08:23:26.791296", "MEAN_MOTION": 14.48954791, "ECCENTRICITY": 0.00333157, "INCLINATION": 74.0363, "RA_OF_ASC_NODE": 319.4658, "ARG_OF_PERICENTER": 332.1121, "MEAN_ANOMALY": 27.8252, "EPHEMERIS_TYPE": 0, "CLASSIFICATION_TYPE": "U", "NORAD_CAT_ID": 34004, "ELEMENT_SET_NO": 999, "REV_AT_EPOCH": 87981, "BSTAR": 0.0021272229, "MEAN_MOTION_DOT": 8.098e-05, "MEAN_MOTION_DDOT": 0}, "tle": {"line1": "1 34004U 93036GP  25343.34961564  .00008098  00000+0  21272-2 0  9997", "line2": "2 34004  74.0363 319.4658 0033315 332.1121  27.8252 14.48954791879811"}}, "geometry": {"type": "Point", "coordinates": [126.954690131578, 31.566940940820327]}}, {"type": "Feature", "properties": {"norad_id": 34005, "name": "COSMOS 2251 DEB", "group": "cosmos-2251-debris", "lat": 50.15964986804622, "lon": 17.510265613431375, "alt_km": 765.4912459354218, "timestamp": "2025-12-10T14:53:37.481420+00:00", "meta": {"OBJECT_NAME": "COSMOS 2251 DEB", "OBJECT_ID": "1993-036GQ", "EPOCH": "2025-12-10T03:21:51.378336", "MEAN_MOTION": 14.40301335, "ECCENTRICITY": 0.0020752, "INCLINATION": 74.0447, "RA_OF_ASC_NODE": 218.45, "ARG_OF_PERICENTER": 337.0432, "MEAN_ANOMALY": 179.8956, "EPHEMERIS_TYPE": 0, "CLASSIFICATION_TYPE": "U", "NORAD_CAT_ID": 34005, "ELEMENT_SET_NO": 999, "REV_AT_EPOCH": 88341, "BSTAR": 0.00015842416, "MEAN_MOTION_DOT": 4.77e-06, "MEAN_MOTION_DDOT": 0}, "tle": {"line1": "1 34005U 93036GQ  25344.14017799  .00000477  00000+0  15842-3 0  9999", "line2": "2 34005  74.0447 218.4500 0020752 337.0432 179.8956 14.40301335883411"}}, "geometry": {"type": "Point", "coordinates": [17.510265613431375, 50.15964986804622]}}, {"type": "Feature", "properties": {"norad_id": 34006, "name": "COSMOS 2251 DEB", "group": "cosmos-2251-debris", "lat": -21.412256871583786, "lon": 141.1144779366006, "alt_km": 592.9548338850936, "timestamp": "2025-12-10T14:53:37.481429+00:00", "meta": {"OBJECT_NAME": "COSMOS 2251 DEB", "OBJECT_ID": "1993-036GR", "EPOCH": "2025-12-09T22:01:46.109856", "MEAN_MOTION": 14.944179, "ECCENTRICITY": 0.00115476, "INCLINATION": 74.0548, "RA_OF_ASC_NODE": 148.9653, "ARG_OF_PERICENTER": 99.3317, "MEAN_ANOMALY": 59.7558, "EPHEMERIS_TYPE": 0, "CLASSIFICATION_TYPE": "U", "NORAD_CAT_ID": 34006, "ELEMENT_SET_NO": 999, "REV_AT_EPOCH": 88626, "BSTAR": 0.0047542032, "MEAN_MOTION_DOT": 0.00051646, "MEAN_MOTION_DDOT": 0}, "tle": {"line1": "1 34006U 93036GR  25343.91789479  .00051646  00000+0  47542-2 0  9990", "line2": "2 34006  74.0548 148.9653 0011547  99.3317  59.7558 14.94417900886267"}}, "geometry": {"type": "Point", "coordinates": [141.1144779366006, -21.412256871583786]}}, {"type": "Feature", "properties": {"norad_id": 34007, "name": "COSMOS 2251 DEB", "group": "cosmos-2251-debris", "lat": 35.09053577916148, "lon": 159.36099930001555, "alt_km": 645.1098757493764, "timestamp": "2025-12-10T14:53:37.481438+00:00", "meta": {"OBJECT_NAME": "COSMOS 2251 DEB", "OBJECT_ID": "1993-036GS", "EPOCH": "2025-12-10T07:41:17.315520", "MEAN_MOTION": 14.64757577, "ECCENTRICITY": 0.00443957, "INCLINATION": 74.0196, "RA_OF_ASC_NODE": 351.5534, "ARG_OF_PERICENTER": 127.326, "MEAN_ANOMALY": 233.1967, "EPHEMERIS_TYPE": 0, "CLASSIFICATION_TYPE": "U", "NORAD_CAT_ID": 34007, "ELEMENT_SET_NO": 999, "REV_AT_EPOCH": 89044, "BSTAR": 0.00097242357, "MEAN_MOTION_DOT": 5.231e-05, "MEAN_MOTION_DDOT": 0}, "tle": {"line1": "1 34007U 93036GS  25344.32033930  .00005231  00000+0  97242-3 0  9993", "line2": "2 34007  74.0196 351.5534 0044395 127.3260 233.1967 14.64757577890444"}}, "geometry": {"type": "Point", "coordinates": [159.36099930001555, 35.09053577916148]}}, {"type": "Feature", "properties": {"norad_id": 34008, "name": "COSMOS 2251 DEB", "group": "cosmos-2251-debris", "lat": 73.95022286925644, "lon": 58.73719196839306, "alt_km": 782.0574828559966, "timestamp": "2025-12-10T14:53:37.481448+00:00", "meta": {"OBJECT_NAME": "COSMOS 2251 DEB", "OBJECT_ID": "1993-036GT", "EPOCH": "2025-12-10T03:04:55.674624", "MEAN_MOTION": 14.33143253, "ECCENTRICITY": 0.00242204, "INCLINATION": 74.0341, "RA_OF_ASC_NODE": 335.2909, "ARG_OF_PERICENTER": 330.9928, "MEAN_ANOMALY": 99.0626, "EPHEMERIS_TYPE": 0, "CLASSIFICATION_TYPE": "U", "NORAD_CAT_ID": 34008, "ELEMENT_SET_NO": 999, "REV_AT_EPOCH": 87927, "BSTAR": 0.00018992794, "MEAN_MOTION_DOT": 4.97e-06, "MEAN_MOTION_DDOT": 0}, "tle": {"line1": "1 34008U 93036GT  25344.12842216  .00000497  00000+0  18993-3 0  9992", "line2": "2 34008  74.0341 335.2909 0024220 330.9928  99.0626 14.33143253879275"}}, "geometry": {"type": "Point", "coordinates": [58.73719196839306, 73.95022286925644]}}, {"type": "Feature", "properties": {"norad_id": 34009, "name": "COSMOS 2251 DEB", "group": "cosmos-2251-debris", "lat": 52.916913698439586, "lon": 138.55698446673804, "alt_km": 770.0041066891699, "timestamp": "2025-12-10T14:53:37.481457+00:00", "meta": {"OBJECT_NAME": "COSMOS 2251 DEB", "OBJECT_ID": "1993-036GU", "EPOCH": "2025-12-10T01:10:43.114368", "MEAN_MOTION": 14.33218678, "ECCENTRICITY": 0.00264187, "INCLINATION": 74.037, "RA_OF_ASC_NODE": 341.8539, "ARG_OF_PERICENTER": 52.348, "MEAN_ANOMALY": 3.8972, "EPHEMERIS_TYPE": 0, "CLASSIFICATION_TYPE": "U", "NORAD_CAT_ID": 34009, "ELEMENT_SET_NO": 999, "REV_AT_EPOCH": 87907, "BSTAR": 0.0002078269, "MEAN_MOTION_DOT": 5.48e-06, "MEAN_MOTION_DDOT": 0}, "tle": {"line1": "1 34009U 93036GU  25344.04911012  .00000548  00000+0  20783-3 0  9992", "line2": "2 34009  74.0370 341.8539 0026418  52.3480   3.8972 14.33218678879078"}}, "geometry": {"type": "Point", "coordinates": [138.55698446673804, 52.916913698439586]}}, {"type": "Feature", "properties": {"norad_id": 34010, "name": "COSMOS 2251 DEB", "group": "cosmos-2251-debris", "lat": 61.87033037002053, "lon": -39.782305421272326, "alt_km": 502.0533379288245, "timestamp": "2025-12-10T14:53:37.481467+00:00", "meta": {"OBJECT_NAME": "COSMOS 2251 DEB", "OBJECT_ID": "1993-036GV", "EPOCH": "2025-12-10T06:41:36.000960", "MEAN_MOTION": 15.17959344, "ECCENTRICITY": 0.00048106, "INCLINATION": 73.9979, "RA_OF_ASC_NODE": 288.4666, "ARG_OF_PERICENTER": 66.6329, "MEAN_ANOMALY": 293.5373, "EPHEMERIS_TYPE": 0, "CLASSIFICATION_TYPE": "U", "NORAD_CAT_ID": 34010, "ELEMENT_SET_NO": 999, "REV_AT_EPOCH": 89248, "BSTAR": 0.0064667152, "MEAN_MOTION_DOT": 0.00133837, "MEAN_MOTION_DDOT": 0}, "tle": {"line1": "1 34010U 93036GV  25344.27888890  .00133837  00000+0  64667-2 0  9992", "line2": "2 34010  73.9979 288.4666 0004810  66.6329 293.5373 15.17959344892480"}}, "geometry": {"type": "Point", "coordinates": [-39.782305421272326, 61.87033037002053]}}, {"type": "Feature", "properties": {"norad_id": 34011, "name": "COSMOS 2251 DEB", "group": "cosmos-2251-debris", "lat": 59.55955549797369, "lon": 3.2763160309990704, "alt_km": 721.4397783411296, "timestamp": "2025-12-10T14:53:37.481477+00:00", "meta": {"OBJECT_NAME": "COSMOS 2251 DEB", "OBJECT_ID": "1993-036GW", "EPOCH": "2025-12-10T01:16:42.354336", "MEAN_MOTION": 14.41748455, "ECCENTRICITY": 0.00354227, "INCLINATION": 74.0156, "RA_OF_ASC_NODE": 335.1342, "ARG_OF_PERICENTER": 59.5603, "MEAN_ANOMALY": 300.9044, "EPHEMERIS_TYPE": 0, "CLASSIFICATION_TYPE": "U", "NORAD_CAT_ID": 34011, "ELEMENT_SET_NO": 999, "REV_AT_EPOCH": 87877, "BSTAR": 0.0010795736, "MEAN_MOTION_DOT": 3.525e-05, "MEAN_MOTION_DDOT": 0}, "tle": {"line1": "1 34011U 93036GW  25344.05326799  .00003525  00000+0  10796-2 0  9998", "line2": "2 34011  74.0156 335.1342 0035422  59.5603 300.9044 14.41748455878779"}}, "geometry": {"type": "Point", "coordinates": [3.2763160309990704, 59.55955549797369]}}]}